{
  "type": "FeatureCollection",
  "features": [
    {
      "type": "Feature",
      "properties": {
        "norad_id": 41860,
        "name": "GSAT0212 (GALILEO 16)",
        "group": "galileo",
        "lat": 54.942987798247984,
        "lon": -174.749686248912,
        "alt_km": 23213.325768778912,
        "timestamp": "2025-12-26T06:43:29.774651+00:00",
        "meta_object_name": "GSAT0212 (GALILEO 16)",
        "meta_object_id": "2016-069B",
        "meta_epoch": "2025-12-23T19:07:58.296864",
        "meta_mean_motion": 1.70474626,
        "meta_eccentricity": 0.0002039,
        "meta_inclination": 55.3859,
        "meta_ra_of_asc_node": 105.9395,
        "meta_arg_of_pericenter": 17.7426,
        "meta_mean_anomaly": 342.2518,
        "meta_ephemeris_type": 0,
        "meta_classification_type": "U",
        "meta_norad_cat_id": 41860,
        "meta_element_set_no": 999,
        "meta_rev_at_epoch": 5666,
        "meta_bstar": 0,
        "meta_mean_motion_dot": 1.3e-07,
        "meta_mean_motion_ddot": 0,
        "tle_line1": "1 41860U 16069B   25357.79720251  .00000013  00000+0  00000+0 0  9998",
        "tle_line2": "2 41860  55.3859 105.9395 0002039  17.7426 342.2518  1.70474626 56664"
      },
      "geometry": {
        "type": "Point",
        "coordinates": [
          -174.749686248912,
          54.942987798247984
        ]
      }
    },
    {
      "type": "Feature",
      "properties": {
        "norad_id": 41861,
        "name": "GSAT0213 (GALILEO 17)",
        "group": "galileo",
        "lat": -30.671144586367934,
        "lon": -49.98030862398214,
        "alt_km": 23222.430131435696,
        "timestamp": "2025-12-26T06:43:29.774662+00:00",
        "meta_object_name": "GSAT0213 (GALILEO 17)",
        "meta_object_id": "2016-069C",
        "meta_epoch": "2025-12-21T19:38:29.842080",
        "meta_mean_motion": 1.70474953,
        "meta_eccentricity": 0.00027355,
        "meta_inclination": 55.3872,
        "meta_ra_of_asc_node": 106.002,
        "meta_arg_of_pericenter": 282.3014,
        "meta_mean_anomaly": 77.6427,
        "meta_ephemeris_type": 0,
        "meta_classification_type": "U",
        "meta_norad_cat_id": 41861,
        "meta_element_set_no": 999,
        "meta_rev_at_epoch": 5649,
        "meta_bstar": 0,
        "meta_mean_motion_dot": 4e-08,
        "meta_mean_motion_ddot": 0,
        "tle_line1": "1 41861U 16069C   25355.81840095  .00000004  00000+0  00000+0 0  9999",
        "tle_line2": "2 41861  55.3872 106.0020 0002735 282.3014  77.6427  1.70474953 56495"
      },
      "geometry": {
        "type": "Point",
        "coordinates": [
          -49.98030862398214,
          -30.671144586367934
        ]
      }
    },
    {
      "type": "Feature",
      "properties": {
        "norad_id": 41862,
        "name": "GSAT0214 (GALILEO 18)",
        "group": "galileo",
        "lat": 39.971205710694434,
        "lon": -109.44600923965262,
        "alt_km": 23222.065643286733,
        "timestamp": "2025-12-26T06:43:29.774674+00:00",
        "meta_object_name": "GSAT0214 (GALILEO 18)",
        "meta_object_id": "2016-069D",
        "meta_epoch": "2025-12-24T07:27:29.645856",
        "meta_mean_motion": 1.70474781,
        "meta_eccentricity": 0.00017476,
        "meta_inclination": 55.3867,
        "meta_ra_of_asc_node": 105.9257,
        "meta_arg_of_pericenter": 287.2715,
        "meta_mean_anomaly": 72.6994,
        "meta_ephemeris_type": 0,
        "meta_classification_type": "U",
        "meta_norad_cat_id": 41862,
        "meta_element_set_no": 999,
        "meta_rev_at_epoch": 5666,
        "meta_bstar": 0,
        "meta_mean_motion_dot": 1.5e-07,
        "meta_mean_motion_ddot": 0,
        "tle_line1": "1 41862U 16069D   25358.31075979  .00000015  00000+0  00000+0 0  9991",
        "tle_line2": "2 41862  55.3867 105.9257 0001747 287.2715  72.6994  1.70474781 56666"
      },
      "geometry": {
        "type": "Point",
        "coordinates": [
          -109.44600923965262,
          39.971205710694434
        ]
      }
    },
    {
      "type": "Feature",
      "properties": {
        "norad_id": 43055,
        "name": "GSAT0215 (GALILEO 19)",
        "group": "galileo",
        "lat": -6.468111084815856,
        "lon": 50.81185590224705,
        "alt_km": 23226.64968072959,
        "timestamp": "2025-12-26T06:43:29.774687+00:00",
        "meta_object_name": "GSAT0215 (GALILEO 19)",
        "meta_object_id": "2017-079A",
        "meta_epoch": "2025-12-24T05:08:42.877824",
        "meta_mean_motion": 1.70473983,
        "meta_eccentricity": 0.00011857,
        "meta_inclination": 55.1264,
        "meta_ra_of_asc_node": 226.3216,
        "meta_arg_of_pericenter": 351.3988,
        "meta_mean_anomaly": 8.6951,
        "meta_ephemeris_type": 0,
        "meta_classification_type": "U",
        "meta_norad_cat_id": 43055,
        "meta_element_set_no": 999,
        "meta_rev_at_epoch": 5000,
        "meta_bstar": 0,
        "meta_mean_motion_dot": 7.2e-07,
        "meta_mean_motion_ddot": 0,
        "tle_line1": "1 43055U 17079A   25358.21438516  .00000072  00000+0  00000+0 0  9991",
        "tle_line2": "2 43055  55.1264 226.3216 0001185 351.3988   8.6951  1.70473983 50002"
      },
      "geometry": {
        "type": "Point",
        "coordinates": [
          50.81185590224705,
          -6.468111084815856
        ]
      }
    },
    {
      "type": "Feature",
      "properties": {
        "norad_id": 43056,
        "name": "GSAT0216 (GALILEO 20)",
        "group": "galileo",
        "lat": 7.448452762318122,
        "lon": -128.49192289641522,
        "alt_km": 23216.45973535351,
        "timestamp": "2025-12-26T06:43:29.774698+00:00",
        "meta_object_name": "GSAT0216 (GALILEO 20)",
        "meta_object_id": "2017-079B",
        "meta_epoch": "2025-12-22T17:54:08.003808",
        "meta_mean_motion": 1.70474127,
        "meta_eccentricity": 0.00023154,
        "meta_inclination": 55.1272,
        "meta_ra_of_asc_node": 226.3621,
        "meta_arg_of_pericenter": 325.7724,
        "meta_mean_anomaly": 34.3161,
        "meta_ephemeris_type": 0,
        "meta_classification_type": "U",
        "meta_norad_cat_id": 43056,
        "meta_element_set_no": 999,
        "meta_rev_at_epoch": 4999,
        "meta_bstar": 0,
        "meta_mean_motion_dot": 7.3e-07,
        "meta_mean_motion_ddot": 0,
        "tle_line1": "1 43056U 17079B   25356.74592597  .00000073  00000+0  00000+0 0  9999",
        "tle_line2": "2 43056  55.1272 226.3621 0002315 325.7724  34.3161  1.70474127 49997"
      },
      "geometry": {
        "type": "Point",
        "coordinates": [
          -128.49192289641522,
          7.448452762318122
        ]
      }
    },
    {
      "type": "Feature",
      "properties": {
        "norad_id": 43057,
        "name": "GSAT0217 (GALILEO 21)",
        "group": "galileo",
        "lat": -41.33756762110112,
        "lon": 84.1081532303442,
        "alt_km": 23232.157430223186,
        "timestamp": "2025-12-26T06:43:29.774709+00:00",
        "meta_object_name": "GSAT0217 (GALILEO 21)",
        "meta_object_id": "2017-079C",
        "meta_epoch": "2025-12-24T03:21:20.619936",
        "meta_mean_motion": 1.70473665,
        "meta_eccentricity": 0.00026088,
        "meta_inclination": 55.1247,
        "meta_ra_of_asc_node": 226.3216,
        "meta_arg_of_pericenter": 4.3447,
        "meta_mean_anomaly": 355.754,
        "meta_ephemeris_type": 0,
        "meta_classification_type": "U",
        "meta_norad_cat_id": 43057,
        "meta_element_set_no": 999,
        "meta_rev_at_epoch": 5000,
        "meta_bstar": 0,
        "meta_mean_motion_dot": 7.2e-07,
        "meta_mean_motion_ddot": 0,
        "tle_line1": "1 43057U 17079C   25358.13982199  .00000072  00000+0  00000+0 0  9995",
        "tle_line2": "2 43057  55.1247 226.3216 0002608   4.3447 355.7540  1.70473665 50008"
      },
      "geometry": {
        "type": "Point",
        "coordinates": [
          84.1081532303442,
          -41.33756762110112
        ]
      }
    },
    {
      "type": "Feature",
      "properties": {
        "norad_id": 43058,
        "name": "GSAT0218 (GALILEO 22)",
        "group": "galileo",
        "lat": 54.201584027757384,
        "lon": -28.91812420745522,
        "alt_km": 23221.607410636978,
        "timestamp": "2025-12-26T06:43:29.774720+00:00",
        "meta_object_name": "GSAT0218 (GALILEO 22)",
        "meta_object_id": "2017-079D",
        "meta_epoch": "2025-12-22T00:19:29.615808",
        "meta_mean_motion": 1.70473914,
        "meta_eccentricity": 0.00024164,
        "meta_inclination": 55.1256,
        "meta_ra_of_asc_node": 226.3779,
        "meta_arg_of_pericenter": 315.4078,
        "meta_mean_anomaly": 44.6792,
        "meta_ephemeris_type": 0,
        "meta_classification_type": "U",
        "meta_norad_cat_id": 43058,
        "meta_element_set_no": 999,
        "meta_rev_at_epoch": 4999,
        "meta_bstar": 0,
        "meta_mean_motion_dot": 7.3e-07,
        "meta_mean_motion_ddot": 0,
        "tle_line1": "1 43058U 17079D   25356.01353722  .00000073  00000+0  00000+0 0  9996",
        "tle_line2": "2 43058  55.1256 226.3779 0002416 315.4078  44.6792  1.70473914 49992"
      },
      "geometry": {
        "type": "Point",
        "coordinates": [
          -28.91812420745522,
          54.201584027757384
        ]
      }
    }
  ]
}